[{"OBJECT_NAME":"KUIPER-00073","OBJECT_ID":"2025-151E","EPOCH":"2026-03-09T21:25:04.125504","MEAN_MOTION":14.79934314,"ECCENTRICITY":8.096e-5,"INCLINATION":51.9015,"RA_OF_ASC_NODE":302.1782,"ARG_OF_PERICENTER":104.304,"MEAN_ANOMALY":255.8013,"EPHEMERIS_TYPE":0,"CLASSIFICATION_TYPE":"U","NORAD_CAT_ID":64820,"ELEMENT_SET_NO":999,"REV_AT_EPOCH":3648,"BSTAR":0.00010488465,"MEAN_MOTION_DOT":5.78e-6,"MEAN_MOTION_DDOT":0},{"OBJECT_NAME":"SL-16 R\/B","OBJECT_ID":"1994-074B","EPOCH":"2026-03-09T23:54:25.867008","MEAN_MOTION":14.79408399,"ECCENTRICITY":0.00057986,"INCLINATION":97.7109,"RA_OF_ASC_NODE":99.8014,"ARG_OF_PERICENTER":209.3381,"MEAN_ANOMALY":210.8055,"EPHEMERIS_TYPE":0,"CLASSIFICATION_TYPE":"U","NORAD_CAT_ID":23343,"ELEMENT_SET_NO":999,"REV_AT_EPOCH":68729,"BSTAR":8.5933802e-5,"MEAN_MOTION_DOT":5.92e-6,"MEAN_MOTION_DDOT":0}]
